ONEWEB-0102             
1 47258U 20100A   25357.10233692 -.00006244  00000+0 -17393-1 0  9998
2 47258  87.8915  25.6595 0001981  90.8185 269.3170 13.12489371241631
ONEWEB-0109             
1 47259U 20100B   25357.11081038 -.00003877  00000+0 -10813-1 0  9994
2 47259  87.8931  25.6289 0001657  94.9343 265.1975 13.12463355241463
ONEWEB-0110             
1 47260U 20100C   25357.06168328  .00004487  00000+0  12435-1 0  9996
2 47260  87.8934  25.6221 0001894  86.0322 274.1023 13.12415806241626
ONEWEB-0111             
1 47261U 20100D   25357.09221868  .00000809  00000+0  22156-2 0  9995
2 47261  87.8928  25.6340 0001653  93.9458 266.1860 13.12398958241462
ONEWEB-0114             
1 47262U 20100E   25357.04643500  .00000101  00000+0  24561-3 0  9990
2 47262  87.8931  25.6380 0001496  99.9762 260.1535 13.12443363241419
ONEWEB-0117             
1 47263U 20100F   25357.11419621 -.00002543  00000+0 -71042-2 0  9993
2 47263  87.8934  25.6213 0001712  94.4815 265.6510 13.12455646241430
ONEWEB-0118             
1 47264U 20100G   25357.07184721  .00007881  00000+0  21867-1 0  9996
2 47264  87.8940  25.6299 0001993  99.0602 261.0752 13.12400365241625
ONEWEB-0119             
1 47265U 20100H   25357.17350117 -.00008648  00000+0 -24079-1 0  9994
2 47265  87.8886  25.6448 0001429  94.2027 265.9264 13.12490688241610
